CCSDS_OMM_VERS = 2.0
CREATION_DATE  = 
ORIGINATOR     = 

OBJECT_NAME    = ALOS (DAICHI)
OBJECT_ID      = 2006-002A
CENTER_NAME    = EARTH
REF_FRAME      = TEME
TIME_SYSTEM    = UTC
MEAN_ELEMENT_THEORY = SGP/SGP4

EPOCH          = 2026-01-17T20:24:53.965440
MEAN_MOTION    = 14.69609888
ECCENTRICITY   = .00021548
INCLINATION    = 98.1139
RA_OF_ASC_NODE = 334.0959
ARG_OF_PERICENTER = 87.4066
MEAN_ANOMALY   = 272.7386

EPHEMERIS_TYPE = 0
CLASSIFICATION_TYPE = U
NORAD_CAT_ID   = 28931
ELEMENT_SET_NO = 999
REV_AT_EPOCH   = 6601
BSTAR          = .1784363E-3
MEAN_MOTION_DOT = .1011E-4
MEAN_MOTION_DDOT = 0

CCSDS_OMM_VERS = 2.0
CREATION_DATE  = 
ORIGINATOR     = 

OBJECT_NAME    = H-2A R/B
OBJECT_ID      = 2006-002B
CENTER_NAME    = EARTH
REF_FRAME      = TEME
TIME_SYSTEM    = UTC
MEAN_ELEMENT_THEORY = SGP/SGP4

EPOCH          = 2026-01-17T23:31:40.936224
MEAN_MOTION    = 15.15331170
ECCENTRICITY   = .00543634
INCLINATION    = 98.2337
RA_OF_ASC_NODE = 160.7164
ARG_OF_PERICENTER = 54.6237
MEAN_ANOMALY   = 306.0055

EPHEMERIS_TYPE = 0
CLASSIFICATION_TYPE = U
NORAD_CAT_ID   = 28932
ELEMENT_SET_NO = 999
REV_AT_EPOCH   = 8675
BSTAR          = .38360631E-3
MEAN_MOTION_DOT = .7425E-4
MEAN_MOTION_DDOT = 0

CCSDS_OMM_VERS = 2.0
CREATION_DATE  = 
ORIGINATOR     = 

OBJECT_NAME    = RESURS-DK 1
OBJECT_ID      = 2006-021A
CENTER_NAME    = EARTH
REF_FRAME      = TEME
TIME_SYSTEM    = UTC
MEAN_ELEMENT_THEORY = SGP/SGP4

EPOCH          = 2026-01-17T22:41:03.164928
MEAN_MOTION    = 15.12387848
ECCENTRICITY   = .00055265
INCLINATION    = 69.9322
RA_OF_ASC_NODE = 8.2529
ARG_OF_PERICENTER = 225.7225
MEAN_ANOMALY   = 134.3488

EPHEMERIS_TYPE = 0
CLASSIFICATION_TYPE = U
NORAD_CAT_ID   = 29228
ELEMENT_SET_NO = 999
REV_AT_EPOCH   = 7985
BSTAR          = .13446619E-3
MEAN_MOTION_DOT = .2232E-4
MEAN_MOTION_DDOT = 0

CCSDS_OMM_VERS = 2.0
CREATION_DATE  = 
ORIGINATOR     = 

OBJECT_NAME    = CZ-4B R/B
OBJECT_ID      = 2006-046C
CENTER_NAME    = EARTH
REF_FRAME      = TEME
TIME_SYSTEM    = UTC
MEAN_ELEMENT_THEORY = SGP/SGP4

EPOCH          = 2026-01-17T20:55:47.096832
MEAN_MOTION    = 15.16275236
ECCENTRICITY   = .00352751
INCLINATION    = 97.5686
RA_OF_ASC_NODE = 62.9135
ARG_OF_PERICENTER = 84.0674
MEAN_ANOMALY   = 276.4578

EPHEMERIS_TYPE = 0
CLASSIFICATION_TYPE = U
NORAD_CAT_ID   = 29507
ELEMENT_SET_NO = 999
REV_AT_EPOCH   = 5234
BSTAR          = .25761683E-3
MEAN_MOTION_DOT = .4996E-4
MEAN_MOTION_DDOT = 0

CCSDS_OMM_VERS = 2.0
CREATION_DATE  = 
ORIGINATOR     = 

OBJECT_NAME    = CZ-2C R/B
OBJECT_ID      = 2007-010B
CENTER_NAME    = EARTH
REF_FRAME      = TEME
TIME_SYSTEM    = UTC
MEAN_ELEMENT_THEORY = SGP/SGP4

EPOCH          = 2026-01-17T20:39:17.724384
MEAN_MOTION    = 14.20225287
ECCENTRICITY   = .00600804
INCLINATION    = 98.3972
RA_OF_ASC_NODE = 133.6939
ARG_OF_PERICENTER = 82.2454
MEAN_ANOMALY   = 278.5540

EPHEMERIS_TYPE = 0
CLASSIFICATION_TYPE = U
NORAD_CAT_ID   = 31114
ELEMENT_SET_NO = 999
REV_AT_EPOCH   = 97250
BSTAR          = .53197167E-4
MEAN_MOTION_DOT = .75E-6
MEAN_MOTION_DDOT = 0

CCSDS_OMM_VERS = 2.0
CREATION_DATE  = 
ORIGINATOR     = 

OBJECT_NAME    = COSMO-SKYMED 1
OBJECT_ID      = 2007-023A
CENTER_NAME    = EARTH
REF_FRAME      = TEME
TIME_SYSTEM    = UTC
MEAN_ELEMENT_THEORY = SGP/SGP4

EPOCH          = 2026-01-17T23:24:48.322656
MEAN_MOTION    = 14.96065671
ECCENTRICITY   = .000096
INCLINATION    = 97.8834
RA_OF_ASC_NODE = 208.6213
ARG_OF_PERICENTER = 76.9486
MEAN_ANOMALY   = 283.1842

EPHEMERIS_TYPE = 0
CLASSIFICATION_TYPE = U
NORAD_CAT_ID   = 31598
ELEMENT_SET_NO = 999
REV_AT_EPOCH   = 732
BSTAR          = .27751518E-3
MEAN_MOTION_DOT = .3058E-4
MEAN_MOTION_DDOT = 0

CCSDS_OMM_VERS = 2.0
CREATION_DATE  = 
ORIGINATOR     = 

OBJECT_NAME    = COSMOS 2428
OBJECT_ID      = 2007-029A
CENTER_NAME    = EARTH
REF_FRAME      = TEME
TIME_SYSTEM    = UTC
MEAN_ELEMENT_THEORY = SGP/SGP4

EPOCH          = 2026-01-17T23:40:43.653504
MEAN_MOTION    = 14.12912564
ECCENTRICITY   = .00058529
INCLINATION    = 70.9401
RA_OF_ASC_NODE = 309.7786
ARG_OF_PERICENTER = 335.2204
MEAN_ANOMALY   = 24.8635

EPHEMERIS_TYPE = 0
CLASSIFICATION_TYPE = U
NORAD_CAT_ID   = 31792
ELEMENT_SET_NO = 999
REV_AT_EPOCH   = 95693
BSTAR          = .2218536E-3
MEAN_MOTION_DOT = .365E-5
MEAN_MOTION_DDOT = 0

CCSDS_OMM_VERS = 2.0
CREATION_DATE  = 
ORIGINATOR     = 

OBJECT_NAME    = SL-16 R/B
OBJECT_ID      = 2007-029B
CENTER_NAME    = EARTH
REF_FRAME      = TEME
TIME_SYSTEM    = UTC
MEAN_ELEMENT_THEORY = SGP/SGP4

EPOCH          = 2026-01-18T00:03:53.094240
MEAN_MOTION    = 14.14822774
ECCENTRICITY   = .00021627
INCLINATION    = 70.9755
RA_OF_ASC_NODE = 278.9323
ARG_OF_PERICENTER = 273.6909
MEAN_ANOMALY   = 97.2393

EPHEMERIS_TYPE = 0
CLASSIFICATION_TYPE = U
NORAD_CAT_ID   = 31793
ELEMENT_SET_NO = 999
REV_AT_EPOCH   = 95820
BSTAR          = -.11226781E-3
MEAN_MOTION_DOT = -.265E-5
MEAN_MOTION_DDOT = 0

CCSDS_OMM_VERS = 2.0
CREATION_DATE  = 
ORIGINATOR     = 

OBJECT_NAME    = KORONAS-FOTON
OBJECT_ID      = 2009-003A
CENTER_NAME    = EARTH
REF_FRAME      = TEME
TIME_SYSTEM    = UTC
MEAN_ELEMENT_THEORY = SGP/SGP4

EPOCH          = 2026-01-17T23:23:21.004224
MEAN_MOTION    = 15.41952897
ECCENTRICITY   = .00108005
INCLINATION    = 82.4325
RA_OF_ASC_NODE = 328.5380
ARG_OF_PERICENTER = 352.2747
MEAN_ANOMALY   = 7.8332

EPHEMERIS_TYPE = 0
CLASSIFICATION_TYPE = U
NORAD_CAT_ID   = 33504
ELEMENT_SET_NO = 999
REV_AT_EPOCH   = 93792
BSTAR          = .21281323E-3
MEAN_MOTION_DOT = .911E-4
MEAN_MOTION_DDOT = 0

CCSDS_OMM_VERS = 2.0
CREATION_DATE  = 
ORIGINATOR     = 

OBJECT_NAME    = CZ-2C R/B
OBJECT_ID      = 2011-030B
CENTER_NAME    = EARTH
REF_FRAME      = TEME
TIME_SYSTEM    = UTC
MEAN_ELEMENT_THEORY = SGP/SGP4

EPOCH          = 2026-01-17T21:00:38.789280
MEAN_MOTION    = 14.81017205
ECCENTRICITY   = .00532941
INCLINATION    = 97.8461
RA_OF_ASC_NODE = 336.1948
ARG_OF_PERICENTER = 154.2290
MEAN_ANOMALY   = 263.5321

EPHEMERIS_TYPE = 0
CLASSIFICATION_TYPE = U
NORAD_CAT_ID   = 37731
ELEMENT_SET_NO = 999
REV_AT_EPOCH   = 78257
BSTAR          = .12254256E-3
MEAN_MOTION_DOT = .919E-5
MEAN_MOTION_DDOT = 0

CCSDS_OMM_VERS = 2.0
CREATION_DATE  = 
ORIGINATOR     = 

OBJECT_NAME    = H-2A R/B
OBJECT_ID      = 2012-025E
CENTER_NAME    = EARTH
REF_FRAME      = TEME
TIME_SYSTEM    = UTC
MEAN_ELEMENT_THEORY = SGP/SGP4

EPOCH          = 2026-01-17T20:37:40.527840
MEAN_MOTION    = 14.94693981
ECCENTRICITY   = .00461275
INCLINATION    = 98.4646
RA_OF_ASC_NODE = 340.8909
ARG_OF_PERICENTER = 117.8698
MEAN_ANOMALY   = 242.7204

EPHEMERIS_TYPE = 0
CLASSIFICATION_TYPE = U
NORAD_CAT_ID   = 38341
ELEMENT_SET_NO = 999
REV_AT_EPOCH   = 74062
BSTAR          = .19623798E-3
MEAN_MOTION_DOT = .2105E-4
MEAN_MOTION_DDOT = 0

CCSDS_OMM_VERS = 2.0
CREATION_DATE  = 
ORIGINATOR     = 

OBJECT_NAME    = SHIJIAN-16 (SJ-16)
OBJECT_ID      = 2013-057A
CENTER_NAME    = EARTH
REF_FRAME      = TEME
TIME_SYSTEM    = UTC
MEAN_ELEMENT_THEORY = SGP/SGP4

EPOCH          = 2026-01-18T00:16:18.670080
MEAN_MOTION    = 14.92146698
ECCENTRICITY   = .00177317
INCLINATION    = 74.9738
RA_OF_ASC_NODE = 281.0177
ARG_OF_PERICENTER = 235.9995
MEAN_ANOMALY   = 123.9509

EPHEMERIS_TYPE = 0
CLASSIFICATION_TYPE = U
NORAD_CAT_ID   = 39358
ELEMENT_SET_NO = 999
REV_AT_EPOCH   = 66394
BSTAR          = .14341561E-3
MEAN_MOTION_DOT = .1434E-4
MEAN_MOTION_DDOT = 0

