ALOS (DAICHI)           
1 28931U 06002A   26017.85062460  .00001011  00000+0  17844-3 0  9997
2 28931  98.1139 334.0959 0002154  87.4066 272.7386 14.69609888 66019
H-2A R/B                
1 28932U 06002B   26017.98033491  .00007425  00000+0  38361-3 0  9996
2 28932  98.2337 160.7164 0054363  54.6237 306.0055 15.15331170 86753
RESURS-DK 1             
1 29228U 06021A   26017.94517552  .00002232  00000+0  13447-3 0  9996
2 29228  69.9322   8.2529 0005526 225.7225 134.3488 15.12387848 79852
CZ-4B R/B               
1 29507U 06046C   26017.87207288  .00004996  00000+0  25762-3 0  9999
2 29507  97.5686  62.9135 0035275  84.0674 276.4578 15.16275236 52344
CZ-2C R/B               
1 31114U 07010B   26017.86062181  .00000075  00000+0  53197-4 0  9996
2 31114  98.3972 133.6939 0060080  82.2454 278.5540 14.20225287972500
COSMO-SKYMED 1          
1 31598U 07023A   26017.97555929  .00003058  00000+0  27752-3 0  9996
2 31598  97.8834 208.6213 0000960  76.9486 283.1842 14.96065671  7329
COSMOS 2428             
1 31792U 07029A   26017.98661636  .00000365  00000+0  22185-3 0  9995
2 31792  70.9401 309.7786 0005852 335.2204  24.8635 14.12912564956939
SL-16 R/B               
1 31793U 07029B   26018.00269785 -.00000265  00000+0 -11227-3 0  9995
2 31793  70.9755 278.9323 0002162 273.6909  97.2393 14.14822774958206
KORONAS-FOTON           
1 33504U 09003A   26017.97454866  .00009110  00000+0  21281-3 0  9999
2 33504  82.4325 328.5380 0010800 352.2747   7.8332 15.41952897937923
CZ-2C R/B               
1 37731U 11030B   26017.87544895  .00000919  00000+0  12254-3 0  9997
2 37731  97.8461 336.1948 0053294 154.2290 263.5321 14.81017205782578
H-2A R/B                
1 38341U 12025E   26017.85949685  .00002105  00000+0  19624-3 0  9991
2 38341  98.4646 340.8909 0046127 117.8698 242.7204 14.94693981740625
SHIJIAN-16 (SJ-16)      
1 39358U 13057A   26018.01132720  .00001434  00000+0  14342-3 0  9995
2 39358  74.9738 281.0177 0017731 235.9995 123.9509 14.92146698663942
